NORAD_CAT_ID,OBJECT_NAME,OBJECT_TYPE,EPOCH,MEAN_MOTION,ECCENTRICITY,INCLINATION,RA_OF_ASC_NODE,ARG_OF_PERICENTER,MEAN_ANOMALY,BSTAR,MEAN_MOTION_DOT,MEAN_MOTION_DDOT,TLE_LINE0,TLE_LINE1,TLE_LINE2,SEMIMAJOR_AXIS,PERIOD,APOGEE,PERIGEE,DECAYED
53011.0,STARLINK-4265,PAYLOAD,2024-07-13 12:36:56,15.08838093,0.0001516,53.2168,276.3257,109.9973,250.1183,2.5138e-05,1.12e-06,0.0,0 STARLINK-4265,1 53011U 22076AB  24195.52565745  .00000112  00000-0  25138-4 0  9994,2 53011  53.2168 276.3257 0001516 109.9973 250.1183 15.08838093111772,6917.886,95.438,540.8,538.702,0.0
53011.0,STARLINK-4265,PAYLOAD,2024-07-13 22:09:15,15.08848686,0.0001576,53.2177,274.5401,103.5583,256.5585,0.00028882,4.313e-05,0.0,0 STARLINK-4265,1 53011U 22076AB  24195.92309528  .00004313  00000-0  28882-3 0  9998,2 53011  53.2177 274.5401 0001576 103.5583 256.5585 15.08848686111838,6917.854,95.437,540.809,538.629,0.0
53011.0,STARLINK-4265,PAYLOAD,2024-07-14 04:30:48,15.08846668,0.0001652,53.218,273.3517,100.803,259.3148,0.00032034,4.815e-05,0.0,0 STARLINK-4265,1 53011U 22076AB  24196.18805642  .00004815  00000-0  32034-3 0  9996,2 53011  53.2180 273.3517 0001652 100.8030 259.3148 15.08846668112340,6917.86,95.437,540.868,538.582,0.0
53011.0,STARLINK-4265,PAYLOAD,2024-07-14 12:27:43,15.08841781,0.0001749,53.2161,271.8614,90.4226,269.6967,0.00018428,2.646e-05,0.0,0 STARLINK-4265,1 53011U 22076AB  24196.51925855  .00002646  00000-0  18428-3 0  9993,2 53011  53.2161 271.8614 0001749  90.4226 269.6967 15.08841781111925,6917.875,95.437,540.95,538.53,0.0
53011.0,STARLINK-4265,PAYLOAD,2024-07-14 22:00:02,15.08852808,0.0001614,53.2157,270.0771,83.2894,276.8282,0.00031327,4.703e-05,0.0,0 STARLINK-4265,1 53011U 22076AB  24196.91669292  .00004703  00000-0  31327-3 0  9996,2 53011  53.2157 270.0771 0001614  83.2894 276.8282 15.08852808112458,6917.841,95.437,540.823,538.59,0.0
53011.0,STARLINK-4265,PAYLOAD,2024-07-15 12:18:30,15.08843007,0.0001399,53.2151,267.3988,83.3657,276.7495,0.00018592,2.672e-05,0.0,0 STARLINK-4265,1 53011U 22076AB  24197.51285585  .00002672  00000-0  18592-3 0  9994,2 53011  53.2151 267.3988 0001399  83.3657 276.7495 15.08843007112545,6917.871,95.437,540.704,538.768,0.0
53011.0,STARLINK-4265,PAYLOAD,2024-07-15 21:50:49,15.08850559,0.0001428,53.2153,265.6161,90.0959,270.0197,0.0004732,7.253e-05,0.0,0 STARLINK-4265,1 53011U 22076AB  24197.91029393  .00007253  00000-0  47320-3 0  9992,2 53011  53.2153 265.6161 0001428  90.0959 270.0197 15.08850559112135,6917.848,95.437,540.701,538.725,0.0
53011.0,STARLINK-4265,PAYLOAD,2024-07-16 10:33:54,15.08831847,0.0001459,53.2145,263.2346,96.4629,263.6529,-1.3264e-05,-4.99e-06,0.0,0 STARLINK-4265,1 53011U 22076AB  24198.44021882 -.00000499  00000-0 -13264-4 0  9994,2 53011  53.2145 263.2346 0001459  96.4629 263.6529 15.08831847112689,6917.905,95.438,540.78,538.761,0.0
53011.0,STARLINK-4265,PAYLOAD,2024-07-17 10:24:42,15.08833687,0.0001295,53.2146,258.7755,84.9536,275.1604,6.9685e-06,-1.77e-06,0.0,0 STARLINK-4265,1 53011U 22076AB  24199.43382353 -.00000177  00000-0  69685-5 0  9998,2 53011  53.2146 258.7755 0001295  84.9536 275.1604 15.08833687112361,6917.9,95.438,540.661,538.869,0.0
53011.0,STARLINK-4265,PAYLOAD,2024-07-18 10:15:29,15.08838474,0.0001314,53.2154,254.3141,91.3813,268.733,0.00016865,2.397e-05,0.0,0 STARLINK-4265,1 53011U 22076AB  24200.42742469  .00002397  00000-0  16865-3 0  9993,2 53011  53.2154 254.3141 0001314  91.3813 268.7330 15.08838474112984,6917.885,95.438,540.659,538.841,0.0
53011.0,STARLINK-4265,PAYLOAD,2024-07-19 10:06:16,15.08840315,0.0001352,53.2146,249.8534,88.7366,271.3781,0.00015314,2.15e-05,0.0,0 STARLINK-4265,1 53011U 22076AB  24201.42102479  .00002150  00000-0  15314-3 0  9990,2 53011  53.2146 249.8534 0001352  88.7366 271.3781 15.08840315112667,6917.879,95.438,540.68,538.809,0.0
53011.0,STARLINK-4265,PAYLOAD,2024-07-20 03:35:30,15.08842148,0.0001308,53.214,246.5821,87.7976,272.3166,0.00010656,1.409e-05,0.0,0 STARLINK-4265,1 53011U 22076AB  24202.14966292  .00001409  00000-0  10656-3 0  9991,2 53011  53.2140 246.5821 0001308  87.7976 272.3166 15.08842148113240,6917.874,95.437,540.644,538.834,0.0
53011.0,STARLINK-4265,PAYLOAD,2024-07-20 09:57:03,15.08837659,0.0001275,53.2161,245.3951,97.3857,262.728,0.00016807,2.388e-05,0.0,0 STARLINK-4265,1 53011U 22076AB  24202.41462387  .00002388  00000-0  16807-3 0  9998,2 53011  53.2161 245.3951 0001275  97.3857 262.7280 15.08837659112815,6917.888,95.438,540.635,538.871,0.0
53011.0,STARLINK-4265,PAYLOAD,2024-07-20 19:29:21,15.0884992,0.0001342,53.2159,243.6108,90.0087,270.1059,0.00015462,2.174e-05,0.0,0 STARLINK-4265,1 53011U 22076AB  24202.81205597  .00002174  00000-0  15462-3 0  9999,2 53011  53.2159 243.6108 0001342  90.0087 270.1059 15.08849920112874,6917.85,95.437,540.643,538.787,0.0
53011.0,STARLINK-4265,PAYLOAD,2024-07-21 03:26:18,15.0882694,0.0001333,53.2153,242.1234,91.9042,268.2103,-7.7735e-06,-4.12e-06,0.0,0 STARLINK-4265,1 53011U 22076AB  24203.14327484 -.00000412  00000-0 -77735-5 0  9994,2 53011  53.2153 242.1234 0001333  91.9042 268.2103 15.08826940113396,6917.92,95.438,540.707,538.863,0.0
53011.0,STARLINK-4265,PAYLOAD,2024-07-21 11:23:14,15.08833599,0.0001385,53.2159,240.6389,96.3038,263.8112,5.9402e-05,6.57e-06,0.0,0 STARLINK-4265,1 53011U 22076AB  24203.47447156  .00000657  00000-0  59402-4 0  9998,2 53011  53.2159 240.6389 0001385  96.3038 263.8112 15.08833599113442,6917.9,95.438,540.723,538.807,0.0
53011.0,STARLINK-4265,PAYLOAD,2024-07-22 11:14:00,15.08844632,0.0001408,53.2145,236.1783,94.1179,265.9974,0.00017545,2.506e-05,0.0,0 STARLINK-4265,1 53011U 22076AB  24204.46806445  .00002506  00000-0  17545-3 0  9994,2 53011  53.2145 236.1783 0001408  94.1179 265.9974 15.08844632113598,6917.866,95.437,540.705,538.757,0.0
53011.0,STARLINK-4265,PAYLOAD,2024-07-23 11:04:47,15.08843417,0.0001396,53.2139,231.7151,93.8353,266.2799,0.00021083,3.069e-05,0.0,0 STARLINK-4265,1 53011U 22076AB  24205.46166650  .00003069  00000-0  21083-3 0  9999,2 53011  53.2139 231.7151 0001396  93.8353 266.2799 15.08843417113743,6917.87,95.437,540.701,538.769,0.0
53011.0,STARLINK-4265,PAYLOAD,2024-07-24 09:20:11,15.08841151,0.0001341,53.214,227.5512,99.0814,261.033,5.451e-05,5.8e-06,0.0,0 STARLINK-4265,1 53011U 22076AB  24206.38902735  .00000580  00000-0  54510-4 0  9990,2 53011  53.2140 227.5512 0001341  99.0814 261.0330 15.08841151113881,6917.877,95.437,540.67,538.814,0.0
53011.0,STARLINK-4265,PAYLOAD,2024-07-25 06:00:12,15.08843116,0.0001303,53.214,223.6851,98.766,261.348,0.0001142,1.53e-05,0.0,0 STARLINK-4265,1 53011U 22076AB  24207.25014641  .00001530  00000-0  11420-3 0  9995,2 53011  53.2140 223.6851 0001303  98.7660 261.3480 15.08843116113542,6917.871,95.437,540.637,538.834,0.0
53011.0,STARLINK-4265,PAYLOAD,2024-07-25 10:46:21,15.08846719,0.0001321,53.215,222.7932,96.0572,264.057,0.0001123,1.5e-05,0.0,0 STARLINK-4265,1 53011U 22076AB  24207.44886372  .00001500  00000-0  11230-3 0  9990,2 53011  53.2150 222.7932 0001321  96.0572 264.0570 15.08846719114044,6917.86,95.437,540.639,538.811,0.0
53011.0,STARLINK-4265,PAYLOAD,2024-07-26 04:15:36,15.08841366,0.0001338,53.2149,219.5215,88.7362,271.3783,8.225e-05,1.021e-05,0.0,0 STARLINK-4265,1 53011U 22076AB  24208.17750647  .00001021  00000-0  82250-4 0  9995,2 53011  53.2149 219.5215 0001338  88.7362 271.3783 15.08841366114155,6917.876,95.437,540.667,538.816,0.0
53011.0,STARLINK-4265,PAYLOAD,2024-07-26 10:37:09,15.08840466,0.0001476,53.2158,218.3329,99.4429,260.673,7.1968e-05,8.58e-06,0.0,0 STARLINK-4265,1 53011U 22076AB  24208.44246660  .00000858  00000-0  71968-4 0  9991,2 53011  53.2158 218.3329 0001476  99.4429 260.6730 15.08840466113729,6917.879,95.438,540.765,538.723,0.0
53011.0,STARLINK-4265,PAYLOAD,2024-07-27 05:41:46,15.08842248,0.0001486,53.2157,214.7644,97.203,262.9131,4.5126e-05,4.3e-06,0.0,0 STARLINK-4265,1 53011U 22076AB  24209.23734531  .00000430  00000-0  45126-4 0  9991,2 53011  53.2157 214.7644 0001486  97.2030 262.9131 15.08842248113846,6917.874,95.437,540.767,538.711,0.0
53011.0,STARLINK-4265,PAYLOAD,2024-07-27 07:17:09,15.08840899,0.0001466,53.2156,214.4673,95.9844,264.1315,2.7956e-05,1.57e-06,0.0,0 STARLINK-4265,1 53011U 22076AB  24209.30358646  .00000157  00000-0  27956-4 0  9995,2 53011  53.2156 214.4673 0001466  95.9844 264.1315 15.08840899114322,6917.878,95.437,540.757,538.728,0.0
53011.0,STARLINK-4265,PAYLOAD,2024-07-27 16:49:28,15.08843949,0.0001455,53.2156,212.6832,95.2518,264.864,4.816e-05,4.79e-06,0.0,0 STARLINK-4265,1 53011U 22076AB  24209.70102349  .00000479  00000-0  48160-4 0  9993,2 53011  53.2156 212.6832 0001455  95.2518 264.8640 15.08843949113919,6917.868,95.437,540.74,538.727,0.0
53011.0,STARLINK-4265,PAYLOAD,2024-07-28 03:57:11,15.08833256,0.000147,53.2158,210.6026,96.054,264.062,-1.792e-06,-3.16e-06,0.0,0 STARLINK-4265,1 53011U 22076AB  24210.16471253 -.00000316  00000-0 -17920-5 0  9991,2 53011  53.2158 210.6026 0001470  96.0540 264.0620 15.08833256114455,6917.901,95.438,540.783,538.749,0.0
53011.0,STARLINK-4265,PAYLOAD,2024-07-28 07:07:57,15.08833449,0.000146,53.2158,210.0085,93.0264,267.0895,-1.0145e-06,-3.04e-06,0.0,0 STARLINK-4265,1 53011U 22076AB  24210.29719273 -.00000304  00000-0 -10145-5 0  9991,2 53011  53.2158 210.0085 0001460  93.0264 267.0895 15.08833449114005,6917.9,95.438,540.775,538.755,0.0
53011.0,STARLINK-4265,PAYLOAD,2024-07-29 10:09:30,15.08839365,0.0001547,53.2162,204.9551,104.8345,255.2818,6.4046e-05,7.31e-06,0.0,0 STARLINK-4265,1 53011U 22076AB  24211.42327011  .00000731  00000-0  64046-4 0  9992,2 53011  53.2162 204.9551 0001547 104.8345 255.2818 15.08839365114644,6917.882,95.438,540.818,538.677,0.0
53011.0,STARLINK-4265,PAYLOAD,2024-07-29 16:31:03,15.08838385,0.0001496,53.2161,203.7644,96.9363,263.1799,3.0666e-05,2e-06,0.0,0 STARLINK-4265,1 53011U 22076AB  24211.68823259  .00000200  00000-0  30666-4 0  9997,2 53011  53.2161 203.7644 0001496  96.9363 263.1799 15.08838385114217,6917.885,95.438,540.785,538.715,0.0
